{
  "type": "FeatureCollection",
  "features": [
    {
      "type": "Feature",
      "properties": {
        "norad_id": 33886,
        "name": "IRIDIUM 33 DEB",
        "group": "iridium-33-debris",
        "lat": 54.25751498501381,
        "lon": 76.37717365717687,
        "alt_km": 772.6853906257347,
        "timestamp": "2025-12-02T23:34:15.901415+00:00",
        "meta_object_name": "IRIDIUM 33 DEB",
        "meta_object_id": "1997-051BF",
        "meta_epoch": "2025-12-02T08:34:29.836128",
        "meta_mean_motion": 14.36030894,
        "meta_eccentricity": 0.0012048,
        "meta_inclination": 86.3832,
        "meta_ra_of_asc_node": 71.5982,
        "meta_arg_of_pericenter": 281.4896,
        "meta_mean_anomaly": 144.7012,
        "meta_ephemeris_type": 0,
        "meta_classification_type": "U",
        "meta_norad_cat_id": 33886,
        "meta_element_set_no": 999,
        "meta_rev_at_epoch": 87903,
        "meta_bstar": 0.00028808,
        "meta_mean_motion_dot": 8.57e-06,
        "meta_mean_motion_ddot": 0,
        "tle_line1": "1 33886U 97051BF  25336.35728977  .00000857  00000+0  28808-3 0  9995",
        "tle_line2": "2 33886  86.3832  71.5982 0012048 281.4896 144.7012 14.36030894879039"
      },
      "geometry": {
        "type": "Point",
        "coordinates": [
          76.37717365717687,
          54.25751498501381
        ]
      }
    },
    {
      "type": "Feature",
      "properties": {
        "norad_id": 33887,
        "name": "IRIDIUM 33 DEB",
        "group": "iridium-33-debris",
        "lat": -50.39641310051377,
        "lon": 3.1178853309452923,
        "alt_km": 772.3720136280945,
        "timestamp": "2025-12-02T23:34:15.901425+00:00",
        "meta_object_name": "IRIDIUM 33 DEB",
        "meta_object_id": "1997-051BG",
        "meta_epoch": "2025-12-02T08:50:48.229728",
        "meta_mean_motion": 14.37206131,
        "meta_eccentricity": 0.0004037,
        "meta_inclination": 86.3053,
        "meta_ra_of_asc_node": 7.8613,
        "meta_arg_of_pericenter": 276.5474,
        "meta_mean_anomaly": 100.6865,
        "meta_ephemeris_type": 0,
        "meta_classification_type": "U",
        "meta_norad_cat_id": 33887,
        "meta_element_set_no": 999,
        "meta_rev_at_epoch": 88016,
        "meta_bstar": 0.00019598,
        "meta_mean_motion_dot": 6.03e-06,
        "meta_mean_motion_ddot": 0,
        "tle_line1": "1 33887U 97051BG  25336.36861377  .00000603  00000+0  19598-3 0  9994",
        "tle_line2": "2 33887  86.3053   7.8613 0004037 276.5474 100.6865 14.37206131880167"
      },
      "geometry": {
        "type": "Point",
        "coordinates": [
          3.1178853309452923,
          -50.39641310051377
        ]
      }
    },
    {
      "type": "Feature",
      "properties": {
        "norad_id": 33953,
        "name": "IRIDIUM 33 DEB",
        "group": "iridium-33-debris",
        "lat": -72.43602849111481,
        "lon": -110.46680242987321,
        "alt_km": 722.823770282429,
        "timestamp": "2025-12-02T23:34:15.901435+00:00",
        "meta_object_name": "IRIDIUM 33 DEB",
        "meta_object_id": "1997-051BN",
        "meta_epoch": "2025-12-02T06:09:33.536160",
        "meta_mean_motion": 14.55143385,
        "meta_eccentricity": 0.0018397,
        "meta_inclination": 86.3854,
        "meta_ra_of_asc_node": 58.3281,
        "meta_arg_of_pericenter": 134.9087,
        "meta_mean_anomaly": 279.6133,
        "meta_ephemeris_type": 0,
        "meta_classification_type": "U",
        "meta_norad_cat_id": 33953,
        "meta_element_set_no": 999,
        "meta_rev_at_epoch": 88151,
        "meta_bstar": 0.0016111,
        "meta_mean_motion_dot": 6.995e-05,
        "meta_mean_motion_ddot": 0,
        "tle_line1": "1 33953U 97051BN  25336.25663815  .00006995  00000+0  16111-2 0  9990",
        "tle_line2": "2 33953  86.3854  58.3281 0018397 134.9087 279.6133 14.55143385881519"
      },
      "geometry": {
        "type": "Point",
        "coordinates": [
          -110.46680242987321,
          -72.43602849111481
        ]
      }
    },
    {
      "type": "Feature",
      "properties": {
        "norad_id": 33960,
        "name": "IRIDIUM 33 DEB",
        "group": "iridium-33-debris",
        "lat": 78.62000563514214,
        "lon": 95.10772252678187,
        "alt_km": 604.0533026595467,
        "timestamp": "2025-12-02T23:34:15.901446+00:00",
        "meta_object_name": "IRIDIUM 33 DEB",
        "meta_object_id": "1997-051BV",
        "meta_epoch": "2025-12-02T09:15:55.545120",
        "meta_mean_motion": 14.84304989,
        "meta_eccentricity": 0.0006956,
        "meta_inclination": 86.2527,
        "meta_ra_of_asc_node": 294.3922,
        "meta_arg_of_pericenter": 76.2656,
        "meta_mean_anomaly": 81.3992,
        "meta_ephemeris_type": 0,
        "meta_classification_type": "U",
        "meta_norad_cat_id": 33960,
        "meta_element_set_no": 999,
        "meta_rev_at_epoch": 88713,
        "meta_bstar": 0.0039056,
        "meta_mean_motion_dot": 0.00032901,
        "meta_mean_motion_ddot": 0,
        "tle_line1": "1 33960U 97051BV  25336.38605955  .00032901  00000+0  39056-2 0  9992",
        "tle_line2": "2 33960  86.2527 294.3922 0006956  76.2656  81.3992 14.84304989887131"
      },
      "geometry": {
        "type": "Point",
        "coordinates": [
          95.10772252678187,
          78.62000563514214
        ]
      }
    },
    {
      "type": "Feature",
      "properties": {
        "norad_id": 33966,
        "name": "IRIDIUM 33 DEB",
        "group": "iridium-33-debris",
        "lat": -37.99836908243953,
        "lon": -126.96165208987343,
        "alt_km": 729.2675304098311,
        "timestamp": "2025-12-02T23:34:15.901457+00:00",
        "meta_object_name": "IRIDIUM 33 DEB",
        "meta_object_id": "1997-051CB",
        "meta_epoch": "2025-12-02T06:16:20.925984",
        "meta_mean_motion": 14.49520493,
        "meta_eccentricity": 0.0006284,
        "meta_inclination": 86.3934,
        "meta_ra_of_asc_node": 50.5231,
        "meta_arg_of_pericenter": 226.5231,
        "meta_mean_anomaly": 192.6741,
        "meta_ephemeris_type": 0,
        "meta_classification_type": "U",
        "meta_norad_cat_id": 33966,
        "meta_element_set_no": 999,
        "meta_rev_at_epoch": 88290,
        "meta_bstar": 0.00078492,
        "meta_mean_motion_dot": 3.028e-05,
        "meta_mean_motion_ddot": 0,
        "tle_line1": "1 33966U 97051CB  25336.26135331  .00003028  00000+0  78492-3 0  9997",
        "tle_line2": "2 33966  86.3934  50.5231 0006284 226.5231 192.6741 14.49520493882907"
      },
      "geometry": {
        "type": "Point",
        "coordinates": [
          -126.96165208987343,
          -37.99836908243953
        ]
      }
    },
    {
      "type": "Feature",
      "properties": {
        "norad_id": 34071,
        "name": "IRIDIUM 33 DEB",
        "group": "iridium-33-debris",
        "lat": -70.69703903436186,
        "lon": 11.559369743490588,
        "alt_km": 741.103038650288,
        "timestamp": "2025-12-02T23:34:15.901467+00:00",
        "meta_object_name": "IRIDIUM 33 DEB",
        "meta_object_id": "1997-051CE",
        "meta_epoch": "2025-12-02T10:38:36.590784",
        "meta_mean_motion": 14.49388997,
        "meta_eccentricity": 0.0009435,
        "meta_inclination": 86.3468,
        "meta_ra_of_asc_node": 22.3033,
        "meta_arg_of_pericenter": 135.5447,
        "meta_mean_anomaly": 224.6516,
        "meta_ephemeris_type": 0,
        "meta_classification_type": "U",
        "meta_norad_cat_id": 34071,
        "meta_element_set_no": 999,
        "meta_rev_at_epoch": 88185,
        "meta_bstar": 0.00080813,
        "meta_mean_motion_dot": 3.109e-05,
        "meta_mean_motion_ddot": 0,
        "tle_line1": "1 34071U 97051CE  25336.44347906  .00003109  00000+0  80813-3 0  9998",
        "tle_line2": "2 34071  86.3468  22.3033 0009435 135.5447 224.6516 14.49388997881853"
      },
      "geometry": {
        "type": "Point",
        "coordinates": [
          11.559369743490588,
          -70.69703903436186
        ]
      }
    },
    {
      "type": "Feature",
      "properties": {
        "norad_id": 34077,
        "name": "IRIDIUM 33 DEB",
        "group": "iridium-33-debris",
        "lat": -44.93808750845256,
        "lon": 52.18956897951306,
        "alt_km": 688.5564545551497,
        "timestamp": "2025-12-02T23:34:15.901478+00:00",
        "meta_object_name": "IRIDIUM 33 DEB",
        "meta_object_id": "1997-051CL",
        "meta_epoch": "2025-12-02T05:59:03.401088",
        "meta_mean_motion": 14.64548903,
        "meta_eccentricity": 0.0011021,
        "meta_inclination": 86.3871,
        "meta_ra_of_asc_node": 56.1267,
        "meta_arg_of_pericenter": 72.3746,
        "meta_mean_anomaly": 341.7588,
        "meta_ephemeris_type": 0,
        "meta_classification_type": "U",
        "meta_norad_cat_id": 34077,
        "meta_element_set_no": 999,
        "meta_rev_at_epoch": 88179,
        "meta_bstar": 0.0020602,
        "meta_mean_motion_dot": 0.00010964,
        "meta_mean_motion_ddot": 0,
        "tle_line1": "1 34077U 97051CL  25336.24934492  .00010964  00000+0  20602-2 0  9990",
        "tle_line2": "2 34077  86.3871  56.1267 0011021  72.3746 341.7588 14.64548903881790"
      },
      "geometry": {
        "type": "Point",
        "coordinates": [
          52.18956897951306,
          -44.93808750845256
        ]
      }
    }
  ]
}